STARLINK-35583          
1 66611U 25270Z   25344.50003471 -.00698482  00000+0 -12784-1 0  9995
2 66611  42.9997 205.7249 0002073 255.6086 258.3617 15.51044618  4141
STARLINK-36039          
1 66612U 25270AA  25344.50003471 -.00729026  00000+0 -13203-1 0  9992
2 66612  42.9998 205.7192 0002082 256.0286 259.8559 15.51057021  4049
STARLINK-36037          
1 66613U 25270AB  25344.50003471 -.00744127  00000+0 -13493-1 0  9993
2 66613  42.9996 205.7142 0002077 256.6873 261.1101 15.51069495  4042
STARLINK-36040          
1 66614U 25270AC  25344.50003471 -.00723763  00000+0 -13102-1 0  9994
2 66614  42.9996 205.7052 0001908 258.2626 263.3722 15.51053992  3888
STARLINK-35988          
1 66615U 25270AD  25344.50003471 -.00767434  00000+0 -13959-1 0  9998
2 66615  42.9996 205.7097 0001787 245.8643 273.8551 15.51054303  3887
STARLINK-35391          
1 66616U 25270AE  25344.50003471 -.00701670  00000+0 -12848-1 0  9995
2 66616  42.9997 205.7006 0001949 259.5855 263.9695 15.51045419  4143
STARLINK-35940          
1 66617U 25271A   25344.50003471 -.01947565  00000+0 -27184-1 0  9992
2 66617  53.1597 198.0278 0001174  99.0519  46.4772 15.59676104  3882
STARLINK-35970          
1 66618U 25271B   25344.50003471 -.01969138  00000+0 -27514-1 0  9990
2 66618  53.1596 197.9152 0001084 108.6362  90.2155 15.59689571  3888
STARLINK-35951          
1 66619U 25271C   25344.50003471 -.01964077  00000+0 -27435-1 0  9990
2 66619  53.1599 198.0106 0001127  97.5753  55.6185 15.59687773  3881
STARLINK-35936          
1 66620U 25271D   25344.50003471 -.01959494  00000+0 -27366-1 0  9992
2 66620  53.1599 198.0238 0001105  95.7071  51.7382 15.59683494  3880
STARLINK-35847          
1 66621U 25271E   25344.50003471 -.01921272  00000+0 -26800-1 0  9998
2 66621  53.1597 197.9073 0001383 109.3322  93.0920 15.59642571  3881
STARLINK-35950          
1 66622U 25271F   25344.50003471 -.01963277  00000+0 -27424-1 0  9993
2 66622  53.1598 198.0077 0001117  96.1284  58.9844 15.59685505  3883
