CCSDS_OMM_VERS = 2.0
CREATION_DATE  = 
ORIGINATOR     = 

OBJECT_NAME    = STARLINK-35583
OBJECT_ID      = 2025-270Z
CENTER_NAME    = EARTH
REF_FRAME      = TEME
TIME_SYSTEM    = UTC
MEAN_ELEMENT_THEORY = SGP/SGP4

EPOCH          = 2025-12-10T12:00:02.998944
MEAN_MOTION    = 15.51044618
ECCENTRICITY   = .0002073
INCLINATION    = 42.9997
RA_OF_ASC_NODE = 205.7249
ARG_OF_PERICENTER = 255.6086
MEAN_ANOMALY   = 258.3617

EPHEMERIS_TYPE = 0
CLASSIFICATION_TYPE = U
NORAD_CAT_ID   = 66611
ELEMENT_SET_NO = 999
REV_AT_EPOCH   = 414
BSTAR          = -.12784E-1
MEAN_MOTION_DOT = -.698482E-2
MEAN_MOTION_DDOT = 0

CCSDS_OMM_VERS = 2.0
CREATION_DATE  = 
ORIGINATOR     = 

OBJECT_NAME    = STARLINK-36039
OBJECT_ID      = 2025-270AA
CENTER_NAME    = EARTH
REF_FRAME      = TEME
TIME_SYSTEM    = UTC
MEAN_ELEMENT_THEORY = SGP/SGP4

EPOCH          = 2025-12-10T12:00:02.998944
MEAN_MOTION    = 15.51057021
ECCENTRICITY   = .0002082
INCLINATION    = 42.9998
RA_OF_ASC_NODE = 205.7192
ARG_OF_PERICENTER = 256.0286
MEAN_ANOMALY   = 259.8559

EPHEMERIS_TYPE = 0
CLASSIFICATION_TYPE = U
NORAD_CAT_ID   = 66612
ELEMENT_SET_NO = 999
REV_AT_EPOCH   = 404
BSTAR          = -.13203E-1
MEAN_MOTION_DOT = -.729026E-2
MEAN_MOTION_DDOT = 0

CCSDS_OMM_VERS = 2.0
CREATION_DATE  = 
ORIGINATOR     = 

OBJECT_NAME    = STARLINK-36037
OBJECT_ID      = 2025-270AB
CENTER_NAME    = EARTH
REF_FRAME      = TEME
TIME_SYSTEM    = UTC
MEAN_ELEMENT_THEORY = SGP/SGP4

EPOCH          = 2025-12-10T12:00:02.998944
MEAN_MOTION    = 15.51069495
ECCENTRICITY   = .0002077
INCLINATION    = 42.9996
RA_OF_ASC_NODE = 205.7142
ARG_OF_PERICENTER = 256.6873
MEAN_ANOMALY   = 261.1101

EPHEMERIS_TYPE = 0
CLASSIFICATION_TYPE = U
NORAD_CAT_ID   = 66613
ELEMENT_SET_NO = 999
REV_AT_EPOCH   = 404
BSTAR          = -.13493E-1
MEAN_MOTION_DOT = -.744127E-2
MEAN_MOTION_DDOT = 0

CCSDS_OMM_VERS = 2.0
CREATION_DATE  = 
ORIGINATOR     = 

OBJECT_NAME    = STARLINK-36040
OBJECT_ID      = 2025-270AC
CENTER_NAME    = EARTH
REF_FRAME      = TEME
TIME_SYSTEM    = UTC
MEAN_ELEMENT_THEORY = SGP/SGP4

EPOCH          = 2025-12-10T12:00:02.998944
MEAN_MOTION    = 15.51053992
ECCENTRICITY   = .0001908
INCLINATION    = 42.9996
RA_OF_ASC_NODE = 205.7052
ARG_OF_PERICENTER = 258.2626
MEAN_ANOMALY   = 263.3722

EPHEMERIS_TYPE = 0
CLASSIFICATION_TYPE = U
NORAD_CAT_ID   = 66614
ELEMENT_SET_NO = 999
REV_AT_EPOCH   = 388
BSTAR          = -.13102E-1
MEAN_MOTION_DOT = -.723763E-2
MEAN_MOTION_DDOT = 0

CCSDS_OMM_VERS = 2.0
CREATION_DATE  = 
ORIGINATOR     = 

OBJECT_NAME    = STARLINK-35988
OBJECT_ID      = 2025-270AD
CENTER_NAME    = EARTH
REF_FRAME      = TEME
TIME_SYSTEM    = UTC
MEAN_ELEMENT_THEORY = SGP/SGP4

EPOCH          = 2025-12-10T12:00:02.998944
MEAN_MOTION    = 15.51054303
ECCENTRICITY   = .0001787
INCLINATION    = 42.9996
RA_OF_ASC_NODE = 205.7097
ARG_OF_PERICENTER = 245.8643
MEAN_ANOMALY   = 273.8551

EPHEMERIS_TYPE = 0
CLASSIFICATION_TYPE = U
NORAD_CAT_ID   = 66615
ELEMENT_SET_NO = 999
REV_AT_EPOCH   = 388
BSTAR          = -.13959E-1
MEAN_MOTION_DOT = -.767434E-2
MEAN_MOTION_DDOT = 0

CCSDS_OMM_VERS = 2.0
CREATION_DATE  = 
ORIGINATOR     = 

OBJECT_NAME    = STARLINK-35391
OBJECT_ID      = 2025-270AE
CENTER_NAME    = EARTH
REF_FRAME      = TEME
TIME_SYSTEM    = UTC
MEAN_ELEMENT_THEORY = SGP/SGP4

EPOCH          = 2025-12-10T12:00:02.998944
MEAN_MOTION    = 15.51045419
ECCENTRICITY   = .0001949
INCLINATION    = 42.9997
RA_OF_ASC_NODE = 205.7006
ARG_OF_PERICENTER = 259.5855
MEAN_ANOMALY   = 263.9695

EPHEMERIS_TYPE = 0
CLASSIFICATION_TYPE = U
NORAD_CAT_ID   = 66616
ELEMENT_SET_NO = 999
REV_AT_EPOCH   = 414
BSTAR          = -.12848E-1
MEAN_MOTION_DOT = -.70167E-2
MEAN_MOTION_DDOT = 0

CCSDS_OMM_VERS = 2.0
CREATION_DATE  = 
ORIGINATOR     = 

OBJECT_NAME    = STARLINK-35940
OBJECT_ID      = 2025-271A
CENTER_NAME    = EARTH
REF_FRAME      = TEME
TIME_SYSTEM    = UTC
MEAN_ELEMENT_THEORY = SGP/SGP4

EPOCH          = 2025-12-10T12:00:02.998944
MEAN_MOTION    = 15.59676104
ECCENTRICITY   = .0001174
INCLINATION    = 53.1597
RA_OF_ASC_NODE = 198.0278
ARG_OF_PERICENTER = 99.0519
MEAN_ANOMALY   = 46.4772

EPHEMERIS_TYPE = 0
CLASSIFICATION_TYPE = U
NORAD_CAT_ID   = 66617
ELEMENT_SET_NO = 999
REV_AT_EPOCH   = 388
BSTAR          = -.27184E-1
MEAN_MOTION_DOT = -.1947565E-1
MEAN_MOTION_DDOT = 0

CCSDS_OMM_VERS = 2.0
CREATION_DATE  = 
ORIGINATOR     = 

OBJECT_NAME    = STARLINK-35970
OBJECT_ID      = 2025-271B
CENTER_NAME    = EARTH
REF_FRAME      = TEME
TIME_SYSTEM    = UTC
MEAN_ELEMENT_THEORY = SGP/SGP4

EPOCH          = 2025-12-10T12:00:02.998944
MEAN_MOTION    = 15.59689571
ECCENTRICITY   = .0001084
INCLINATION    = 53.1596
RA_OF_ASC_NODE = 197.9152
ARG_OF_PERICENTER = 108.6362
MEAN_ANOMALY   = 90.2155

EPHEMERIS_TYPE = 0
CLASSIFICATION_TYPE = U
NORAD_CAT_ID   = 66618
ELEMENT_SET_NO = 999
REV_AT_EPOCH   = 388
BSTAR          = -.27514E-1
MEAN_MOTION_DOT = -.1969138E-1
MEAN_MOTION_DDOT = 0

CCSDS_OMM_VERS = 2.0
CREATION_DATE  = 
ORIGINATOR     = 

OBJECT_NAME    = STARLINK-35951
OBJECT_ID      = 2025-271C
CENTER_NAME    = EARTH
REF_FRAME      = TEME
TIME_SYSTEM    = UTC
MEAN_ELEMENT_THEORY = SGP/SGP4

EPOCH          = 2025-12-10T12:00:02.998944
MEAN_MOTION    = 15.59687773
ECCENTRICITY   = .0001127
INCLINATION    = 53.1599
RA_OF_ASC_NODE = 198.0106
ARG_OF_PERICENTER = 97.5753
MEAN_ANOMALY   = 55.6185

EPHEMERIS_TYPE = 0
CLASSIFICATION_TYPE = U
NORAD_CAT_ID   = 66619
ELEMENT_SET_NO = 999
REV_AT_EPOCH   = 388
BSTAR          = -.27435E-1
MEAN_MOTION_DOT = -.1964077E-1
MEAN_MOTION_DDOT = 0

CCSDS_OMM_VERS = 2.0
CREATION_DATE  = 
ORIGINATOR     = 

OBJECT_NAME    = STARLINK-35936
OBJECT_ID      = 2025-271D
CENTER_NAME    = EARTH
REF_FRAME      = TEME
TIME_SYSTEM    = UTC
MEAN_ELEMENT_THEORY = SGP/SGP4

EPOCH          = 2025-12-10T12:00:02.998944
MEAN_MOTION    = 15.59683494
ECCENTRICITY   = .0001105
INCLINATION    = 53.1599
RA_OF_ASC_NODE = 198.0238
ARG_OF_PERICENTER = 95.7071
MEAN_ANOMALY   = 51.7382

EPHEMERIS_TYPE = 0
CLASSIFICATION_TYPE = U
NORAD_CAT_ID   = 66620
ELEMENT_SET_NO = 999
REV_AT_EPOCH   = 388
BSTAR          = -.27366E-1
MEAN_MOTION_DOT = -.1959494E-1
MEAN_MOTION_DDOT = 0

CCSDS_OMM_VERS = 2.0
CREATION_DATE  = 
ORIGINATOR     = 

OBJECT_NAME    = STARLINK-35847
OBJECT_ID      = 2025-271E
CENTER_NAME    = EARTH
REF_FRAME      = TEME
TIME_SYSTEM    = UTC
MEAN_ELEMENT_THEORY = SGP/SGP4

EPOCH          = 2025-12-10T12:00:02.998944
MEAN_MOTION    = 15.59642571
ECCENTRICITY   = .0001383
INCLINATION    = 53.1597
RA_OF_ASC_NODE = 197.9073
ARG_OF_PERICENTER = 109.3322
MEAN_ANOMALY   = 93.0920

EPHEMERIS_TYPE = 0
CLASSIFICATION_TYPE = U
NORAD_CAT_ID   = 66621
ELEMENT_SET_NO = 999
REV_AT_EPOCH   = 388
BSTAR          = -.268E-1
MEAN_MOTION_DOT = -.1921272E-1
MEAN_MOTION_DDOT = 0

CCSDS_OMM_VERS = 2.0
CREATION_DATE  = 
ORIGINATOR     = 

OBJECT_NAME    = STARLINK-35950
OBJECT_ID      = 2025-271F
CENTER_NAME    = EARTH
REF_FRAME      = TEME
TIME_SYSTEM    = UTC
MEAN_ELEMENT_THEORY = SGP/SGP4

EPOCH          = 2025-12-10T12:00:02.998944
MEAN_MOTION    = 15.59685505
ECCENTRICITY   = .0001117
INCLINATION    = 53.1598
RA_OF_ASC_NODE = 198.0077
ARG_OF_PERICENTER = 96.1284
MEAN_ANOMALY   = 58.9844

EPHEMERIS_TYPE = 0
CLASSIFICATION_TYPE = U
NORAD_CAT_ID   = 66622
ELEMENT_SET_NO = 999
REV_AT_EPOCH   = 388
BSTAR          = -.27424E-1
MEAN_MOTION_DOT = -.1963277E-1
MEAN_MOTION_DDOT = 0

